NORAD_CAT_ID,OBJECT_NAME,OBJECT_TYPE,EPOCH,MEAN_MOTION,ECCENTRICITY,INCLINATION,RA_OF_ASC_NODE,ARG_OF_PERICENTER,MEAN_ANOMALY,BSTAR,MEAN_MOTION_DOT,MEAN_MOTION_DDOT,TLE_LINE0,TLE_LINE1,TLE_LINE2,SEMIMAJOR_AXIS,PERIOD,APOGEE,PERIGEE,DECAYED
52288.0,STARLINK-3776,PAYLOAD,2024-04-07 22:39:56,15.08862573,0.0001963,53.2188,4.8879,84.9662,275.1555,-0.0002388,-4.089e-05,0.0,0 STARLINK-3776,1 52288U 22041AD  24098.94440221 -.00004089  00000-0 -23880-3 0  9990,2 52288  53.2188   4.8879 0001963  84.9662 275.1555 15.08862573108716,6917.811,95.436,541.034,538.318,0.0
52288.0,STARLINK-3776,PAYLOAD,2024-04-08 03:26:05,15.08851159,0.0001606,53.2192,3.9943,94.1959,265.9217,-2.8977e-05,-7.49e-06,0.0,0 STARLINK-3776,1 52288U 22041AD  24099.14312370 -.00000749  00000-0 -28977-4 0  9998,2 52288  53.2192   3.9943 0001606  94.1959 265.9217 15.08851159108742,6917.846,95.437,540.822,538.6,0.0
52288.0,STARLINK-3776,PAYLOAD,2024-04-09 00:06:06,15.08838864,0.0001389,53.2181,0.1299,88.4246,271.6905,0.00010151,1.328e-05,0.0,0 STARLINK-3776,1 52288U 22041AD  24100.00424687  .00001328  00000-0  10151-3 0  9997,2 52288  53.2181   0.1299 0001389  88.4246 271.6905 15.08838864108876,6917.884,95.438,540.71,538.788,0.0
52288.0,STARLINK-3776,PAYLOAD,2024-04-09 03:16:53,15.08841505,0.0001421,53.2194,359.5349,89.8513,270.2642,6.8903e-05,8.09e-06,0.0,0 STARLINK-3776,1 52288U 22041AD  24100.13672625  .00000809  00000-0  68903-4 0  9990,2 52288  53.2194 359.5349 0001421  89.8513 270.2642 15.08841505110115,6917.876,95.437,540.724,538.758,0.0
52288.0,STARLINK-3776,PAYLOAD,2024-04-09 23:56:54,15.08835186,0.0001334,53.2197,355.6725,84.3553,275.7591,1.4432e-05,-5.8e-07,0.0,0 STARLINK-3776,1 52288U 22041AD  24100.99785417 -.00000058  00000-0  14432-4 0  9993,2 52288  53.2197 355.6725 0001334  84.3553 275.7591 15.08835186110245,6917.895,95.438,540.683,538.837,0.0
52288.0,STARLINK-3776,PAYLOAD,2024-04-10 09:29:14,15.08825675,0.0001247,53.2183,353.8884,88.1556,271.9579,2.7957e-05,1.57e-06,0.0,0 STARLINK-3776,1 52288U 22041AD  24101.39530141  .00000157  00000-0  27957-4 0  9995,2 52288  53.2183 353.8884 0001247  88.1556 271.9579 15.08825675110307,6917.924,95.438,540.652,538.927,0.0
52288.0,STARLINK-3776,PAYLOAD,2024-04-10 22:12:19,15.08831247,0.0001266,53.2199,351.5109,92.185,267.9287,-0.00010031,-1.884e-05,0.0,0 STARLINK-3776,1 52288U 22041AD  24101.92522553 -.00001884  00000-0 -10031-3 0  9996,2 52288  53.2199 351.5109 0001266  92.1850 267.9287 15.08831247109167,6917.907,95.438,540.648,538.896,0.0
52288.0,STARLINK-3776,PAYLOAD,2024-04-11 09:20:00,15.08838649,0.0001267,53.2193,349.4296,95.8086,264.305,-2.0998e-05,-6.22e-06,0.0,0 STARLINK-3776,1 52288U 22041AD  24102.38889984 -.00000622  00000-0 -20998-4 0  9994,2 52288  53.2193 349.4296 0001267  95.8086 264.3050 15.08838649110452,6917.885,95.438,540.626,538.873,0.0
52288.0,STARLINK-3776,PAYLOAD,2024-04-11 22:03:05,15.08841696,0.0001237,53.2188,347.0503,95.4865,264.6269,0.00017962,2.572e-05,0.0,0 STARLINK-3776,1 52288U 22041AD  24102.91881330  .00002572  00000-0  17962-3 0  9990,2 52288  53.2188 347.0503 0001237  95.4865 264.6269 15.08841696109313,6917.875,95.437,540.596,538.884,0.0
52288.0,STARLINK-3776,PAYLOAD,2024-04-12 02:49:14,15.08846485,0.0001247,53.2178,346.1575,94.5573,265.5562,0.00021544,3.143e-05,0.0,0 STARLINK-3776,1 52288U 22041AD  24103.11752962  .00003143  00000-0  21544-3 0  9997,2 52288  53.2178 346.1575 0001247  94.5573 265.5562 15.08846485110564,6917.861,95.437,540.588,538.863,0.0
52288.0,STARLINK-3776,PAYLOAD,2024-04-12 21:53:53,15.08837079,0.0001459,53.2196,342.5857,88.1757,271.9402,0.00011359,1.52e-05,0.0,0 STARLINK-3776,1 52288U 22041AD  24103.91242074  .00001520  00000-0  11359-3 0  9993,2 52288  53.2196 342.5857 0001459  88.1757 271.9402 15.08837079109465,6917.889,95.438,540.764,538.745,0.0
52288.0,STARLINK-3776,PAYLOAD,2024-04-13 01:04:39,15.08837946,0.0001459,53.2193,341.9905,87.782,272.334,0.0001072,1.418e-05,0.0,0 STARLINK-3776,1 52288U 22041AD  24104.04490031  .00001418  00000-0  10720-3 0  9993,2 52288  53.2193 341.9905 0001459  87.7820 272.3340 15.08837946110703,6917.887,95.438,540.761,538.742,0.0
52288.0,STARLINK-3776,PAYLOAD,2024-04-13 21:44:39,15.08846171,0.0001552,53.2204,338.1221,92.6155,267.5015,-6.4579e-06,-3.91e-06,0.0,0 STARLINK-3776,1 52288U 22041AD  24104.90601687 -.00000391  00000-0 -64579-5 0  9993,2 52288  53.2204 338.1221 0001552  92.6155 267.5015 15.08846171109618,6917.862,95.437,540.8,538.653,0.0
52288.0,STARLINK-3776,PAYLOAD,2024-04-13 23:20:02,15.08851612,0.00012,53.2184,337.8256,100.9383,259.1744,-3.9319e-05,-9.14e-06,0.0,0 STARLINK-3776,1 52288U 22041AD  24104.97225329 -.00000914  00000-0 -39319-4 0  9999,2 52288  53.2184 337.8256 0001200 100.9383 259.1744 15.08851612110844,6917.845,95.437,540.54,538.88,0.0
52288.0,STARLINK-3776,PAYLOAD,2024-04-14 20:00:03,15.08840842,0.0001439,53.2193,333.9638,74.3392,285.7759,5.6144e-05,6.06e-06,0.0,0 STARLINK-3776,1 52288U 22041AD  24105.83337790  .00000606  00000-0  56144-4 0  9992,2 52288  53.2193 333.9638 0001439  74.3392 285.7759 15.08840842110971,6917.878,95.438,540.738,538.747,0.0
52288.0,STARLINK-3776,PAYLOAD,2024-04-14 21:35:26,15.08835978,0.0001497,53.2188,333.668,71.4223,288.6931,0.0001611,2.277e-05,0.0,0 STARLINK-3776,1 52288U 22041AD  24105.89961752  .00002277  00000-0  16110-3 0  9993,2 52288  53.2188 333.6680 0001497  71.4223 288.6931 15.08835978109767,6917.893,95.438,540.793,538.722,0.0
52288.0,STARLINK-3776,PAYLOAD,2024-04-15 00:46:12,15.08845026,0.0001541,53.2199,333.0657,73.2686,286.8475,7.0577e-05,8.36e-06,0.0,0 STARLINK-3776,1 52288U 22041AD  24106.03209456  .00000836  00000-0  70577-4 0  9993,2 52288  53.2199 333.0657 0001541  73.2686 286.8475 15.08845026109780,6917.865,95.437,540.796,538.664,0.0
52288.0,STARLINK-3776,PAYLOAD,2024-04-15 21:26:13,15.08844931,0.0001215,53.2184,329.2015,100.0425,260.0704,-6.0895e-06,-3.85e-06,0.0,0 STARLINK-3776,1 52288U 22041AD  24106.89321469 -.00000385  00000-0 -60895-5 0  9990,2 52288  53.2184 329.2015 0001215 100.0425 260.0704 15.08844931111132,6917.865,95.437,540.571,538.89,0.0
52288.0,STARLINK-3776,PAYLOAD,2024-04-16 19:41:37,15.08849319,0.0001268,53.2184,325.0404,105.174,254.9392,1.3506e-05,-7.3e-07,0.0,0 STARLINK-3776,1 52288U 22041AD  24107.82057172 -.00000073  00000-0  13506-4 0  9990,2 52288  53.2184 325.0404 0001268 105.1740 254.9392 15.08849319110052,6917.852,95.437,540.594,538.84,0.0
52288.0,STARLINK-3776,PAYLOAD,2024-04-17 00:27:46,15.08853607,0.0001346,53.2181,324.1476,117.5063,242.6066,5.5763e-05,6e-06,0.0,0 STARLINK-3776,1 52288U 22041AD  24108.01928618  .00000600  00000-0  55763-4 0  9990,2 52288  53.2181 324.1476 0001346 117.5063 242.6066 15.08853607111306,6917.839,95.437,540.635,538.773,0.0
52288.0,STARLINK-3776,PAYLOAD,2024-04-17 19:32:25,15.08829808,0.0001429,53.2175,320.5814,109.8437,250.2709,-1.5716e-05,-5.38e-06,0.0,0 STARLINK-3776,1 52288U 22041AD  24108.81418727 -.00000538  00000-0 -15716-4 0  9999,2 52288  53.2175 320.5814 0001429 109.8437 250.2709 15.08829808111424,6917.912,95.438,540.765,538.788,0.0
52288.0,STARLINK-3776,PAYLOAD,2024-04-17 21:07:48,15.08830487,0.0001386,53.2182,320.2834,103.9218,256.1928,8.3794e-06,-1.55e-06,0.0,0 STARLINK-3776,1 52288U 22041AD  24108.88042692 -.00000155  00000-0  83794-5 0  9996,2 52288  53.2182 320.2834 0001386 103.9218 256.1928 15.08830487110214,6917.909,95.438,540.733,538.816,0.0
52288.0,STARLINK-3776,PAYLOAD,2024-04-18 00:18:35,15.08831129,0.0001339,53.2181,319.6872,98.9027,261.2117,1.0841e-05,-1.15e-06,0.0,0 STARLINK-3776,1 52288U 22041AD  24109.01290741 -.00000115  00000-0  10841-4 0  9990,2 52288  53.2181 319.6872 0001339  98.9027 261.2117 15.08831129110239,6917.908,95.438,540.699,538.846,0.0
52288.0,STARLINK-3776,PAYLOAD,2024-04-18 19:23:12,15.0884891,0.0001337,53.2176,316.12,111.2248,248.8887,6.7297e-06,-1.81e-06,0.0,0 STARLINK-3776,1 52288U 22041AD  24109.80777866 -.00000181  00000-0  67297-5 0  9996,2 52288  53.2176 316.1200 0001337 111.2248 248.8887 15.08848910111571,6917.853,95.437,540.643,538.793,0.0
52288.0,STARLINK-3776,PAYLOAD,2024-04-19 00:09:21,15.08845043,0.0001847,53.2171,315.226,126.0664,234.05,0.00017035,2.424e-05,0.0,0 STARLINK-3776,1 52288U 22041AD  24110.00649845  .00002424  00000-0  17035-3 0  9999,2 52288  53.2171 315.2260 0001847 126.0664 234.0500 15.08845043110385,6917.865,95.437,541.008,538.452,0.0
52288.0,STARLINK-3776,PAYLOAD,2024-04-19 20:49:21,15.08860841,0.0001277,53.2168,311.3611,101.0039,259.1096,0.0004328,6.611e-05,0.0,0 STARLINK-3776,1 52288U 22041AD  24110.86761263  .00006611  00000-0  43280-3 0  9995,2 52288  53.2168 311.3611 0001277 101.0039 259.1096 15.08860841111735,6917.817,95.436,540.565,538.798,0.0
52288.0,STARLINK-3776,PAYLOAD,2024-04-19 22:24:44,15.08863049,0.0001287,53.2168,311.0639,105.7234,254.3901,0.00045807,7.014e-05,0.0,0 STARLINK-3776,1 52288U 22041AD  24110.93385104  .00007014  00000-0  45807-3 0  9994,2 52288  53.2168 311.0639 0001287 105.7234 254.3901 15.08863049110522,6917.81,95.436,540.565,538.785,0.0
52288.0,STARLINK-3776,PAYLOAD,2024-04-20 20:40:08,15.08856795,0.0001577,53.2172,306.9028,89.7984,270.3189,0.00014088,1.956e-05,0.0,0 STARLINK-3776,1 52288U 22041AD  24111.86121059  .00001956  00000-0  14088-3 0  9990,2 52288  53.2172 306.9028 0001577  89.7984 270.3189 15.08856795111883,6917.829,95.436,540.785,538.603,0.0
52288.0,STARLINK-3776,PAYLOAD,2024-04-21 12:34:00,15.08834918,0.000159,53.2171,303.9292,81.5978,278.5194,-0.00013281,-2.401e-05,0.0,0 STARLINK-3776,1 52288U 22041AD  24112.52361838 -.00002401  00000-0 -13281-3 0  9997,2 52288  53.2171 303.9292 0001590  81.5978 278.5194 15.08834918110765,6917.896,95.438,540.861,538.661,0.0
52288.0,STARLINK-3776,PAYLOAD,2024-04-21 22:06:18,15.08843694,0.0001806,53.2178,302.1431,114.9133,245.2047,-1.3821e-05,-5.08e-06,0.0,0 STARLINK-3776,1 52288U 22041AD  24112.92105289 -.00000508  00000-0 -13821-4 0  9994,2 52288  53.2178 302.1431 0001806 114.9133 245.2047 15.08843694110828,6917.869,95.437,540.983,538.485,0.0
